ONEWEB-0211             
1 48767U 21045A   26181.49442408  .00000103  00000+0  23749-3 0  9998
2 48767  87.9002 256.4282 0002351 115.6819 244.4554 13.16197127246199
ONEWEB-0223             
1 48768U 21045B   26181.27512592  .00000125  00000+0  29871-3 0  9993
2 48768  87.9006 256.5838 0001997 111.9051 248.2292 13.15549673246124
ONEWEB-0230             
1 48769U 21045C   26181.24660487 -.00000034  00000+0 -12508-3 0  9998
2 48769  87.8994 256.6022 0001950  94.9879 265.1474 13.15549223246382
ONEWEB-0237             
1 48770U 21045D   26181.23550575 -.00001693  00000+0 -45326-2 0  9990
2 48770  87.8996 256.6060 0002051 106.8399 253.2957 13.15555501246101
ONEWEB-0235             
1 48771U 21045E   26181.21016225  .00000179  00000+0  44080-3 0  9991
2 48771  87.9006 256.5977 0001908 111.3723 248.7611 13.15549829246093
ONEWEB-0242             
1 48772U 21045F   26181.50805472  .00000154  00000+0  37379-3 0  9990
2 48772  87.9008 256.5356 0001826 102.0344 258.0992 13.15547976246178
ONEWEB-0241             
1 48773U 21045G   26181.26720151  .00000164  00000+0  40043-3 0  9997
2 48773  87.8994 256.6004 0002152 111.0727 249.0633 13.15549583246056
ONEWEB-0243             
1 48774U 21045H   26181.22285594 -.00002054  00000+0 -54936-2 0  9998
2 48774  87.8995 256.6213 0001399 106.6769 253.4516 13.15530780246078
ONEWEB-0222             
1 48775U 21045J   26181.28224759  .00000175  00000+0  43048-3 0  9994
2 48775  87.9006 256.5784 0002030 106.4822 253.6531 13.15549890246123
ONEWEB-0244             
1 48776U 21045K   26181.23234160 -.00000051  00000+0 -17018-3 0  9990
2 48776  87.9012 256.5838 0001927 103.0345 257.1000 13.15549615246684
ONEWEB-0247             
1 48777U 21045L   26181.22917812 -.00000042  00000+0 -14583-3 0  9996
2 48777  87.8995 256.6150 0001503 122.3396 237.7880 13.15548079246124
ONEWEB-0245             
1 48778U 21045M   26181.22441986  .00000048  00000+0  94620-4 0  9996
2 48778  87.9005 256.5959 0002099 104.2215 255.9149 13.15548452246095
ONEWEB-0229             
1 48779U 21045N   26181.21966162  .00000051  00000+0  10098-3 0  9994
2 48779  87.9009 256.5947 0001884 100.4886 259.6457 13.15549649246126
ONEWEB-0228             
1 48780U 21045P   26181.25308240  .00000145  00000+0  35002-3 0  9993
2 48780  87.9011 256.5817 0001996 102.1041 258.0313 13.15548096246043
ONEWEB-0232             
1 48781U 21045Q   26181.22758957 -.00000007  00000+0 -51845-4 0  9998
2 48781  87.9010 256.5872 0002098 100.5364 259.6002 13.15547257246363
ONEWEB-0231             
1 48782U 21045R   26181.20539989  .00000187  00000+0  46136-3 0  9992
2 48782  87.9005 256.6041 0001959 106.6675 253.4670 13.15549386246058
ONEWEB-0234             
1 48783U 21045S   26181.24329067 -.00000053  00000+0 -17399-3 0  9994
2 48783  87.9004 256.5786 0002868  99.0387 261.1068 13.15549184246196
ONEWEB-0238             
1 48784U 21045T   26181.24357397 -.00000039  00000+0 -13798-3 0  9995
2 48784  87.9010 256.5739 0002461  99.6126 260.5283 13.15548352246095
ONEWEB-0240             
1 48785U 21045U   26181.26482690  .00000076  00000+0  16798-3 0  9995
2 48785  87.9008 256.5794 0001949 114.0975 246.0359 13.15549287246123
ONEWEB-0246             
1 48786U 21045V   26181.25927380  .00000018  00000+0  14591-4 0  9991
2 48786  87.9007 256.5847 0001901 100.2443 259.8901 13.15549571245992
ONEWEB-0210             
1 48787U 21045W   26181.23392166  .00000007  00000+0 -16719-4 0  9991
2 48787  87.9007 256.5869 0001253 114.8824 245.2437 13.15547437246039
ONEWEB-0214             
1 48788U 21045X   26181.24262994 -.00000019  00000+0 -83744-4 0  9994
2 48788  87.9005 256.5821 0001691  94.6023 265.5300 13.15549824246001
ONEWEB-0221             
1 48789U 21045Y   26181.24977408  .00000071  00000+0  15368-3 0  9990
2 48789  87.9006 256.5892 0001963 105.5694 254.5653 13.15548960246097
ONEWEB-0213             
1 48790U 21045Z   26181.23868299 -.00000053  00000+0 -17581-3 0  9999
2 48790  87.9006 256.5944 0001855 106.7658 253.3676 13.15548133246151
ONEWEB-0212             
1 48791U 21045AA  26181.21568083  .00000094  00000+0  21607-3 0  9993
2 48791  87.9006 256.5931 0002077  99.3897 260.7469 13.15551071246143
ONEWEB-0227             
1 48792U 21045AB  26181.21490845  .00000166  00000+0  40770-3 0  9996
2 48792  87.9005 256.5939 0002024 102.2491 257.8866 13.15550002246092
ONEWEB-0226             
1 48793U 21045AC  26181.20856680  .00000175  00000+0  42971-3 0  9994
2 48793  87.9002 256.5996 0001786 103.7344 256.3985 13.15547358246063
ONEWEB-0224             
1 48794U 21045AD  26181.24819240 -.00000010  00000+0 -60140-4 0  9999
2 48794  87.8997 256.6254 0002815 111.3471 248.7960 13.15548197245995
ONEWEB-0233             
1 48795U 21045AE  26181.48097515 -.00000046  00000+0 -15496-3 0  9991
2 48795  87.8996 256.5863 0002023 108.6025 251.5325 13.15548300246045
ONEWEB-0190             
1 48796U 21045AF  26181.24026615 -.00000024  00000+0 -98833-4 0  9992
2 48796  87.9001 256.5968 0001762 119.3978 240.7328 13.15548053246087
