OBJECT_NAME,OBJECT_ID,EPOCH,MEAN_MOTION,ECCENTRICITY,INCLINATION,RA_OF_ASC_NODE,ARG_OF_PERICENTER,MEAN_ANOMALY,EPHEMERIS_TYPE,CLASSIFICATION_TYPE,NORAD_CAT_ID,ELEMENT_SET_NO,REV_AT_EPOCH,BSTAR,MEAN_MOTION_DOT,MEAN_MOTION_DDOT
ONEWEB-0211,2021-045A,2026-06-30T11:51:58.240512,13.16197127,.00023514,87.9002,256.4282,115.6819,244.4554,0,U,48767,999,24619,.23749167E-3,.103E-5,0
ONEWEB-0223,2021-045B,2026-06-30T06:36:10.879488,13.15549673,.00019977,87.9006,256.5838,111.9051,248.2292,0,U,48768,999,24612,.29870692E-3,.125E-5,0
ONEWEB-0230,2021-045C,2026-06-30T05:55:06.660768,13.15549223,.000195,87.8994,256.6022,94.9879,265.1474,0,U,48769,999,24638,-.12507616E-3,-.34E-6,0
ONEWEB-0237,2021-045D,2026-06-30T05:39:07.696800,13.15555501,.00020515,87.8996,256.6060,106.8399,253.2957,0,U,48770,999,24610,-.4532629E-2,-.1693E-4,0
ONEWEB-0235,2021-045E,2026-06-30T05:02:38.018400,13.15549829,.00019082,87.9006,256.5977,111.3723,248.7611,0,U,48771,999,24609,.44079763E-3,.179E-5,0
ONEWEB-0242,2021-045F,2026-06-30T12:11:35.927808,13.15547976,.0001826,87.9008,256.5356,102.0344,258.0992,0,U,48772,999,24617,.37378784E-3,.154E-5,0
ONEWEB-0241,2021-045G,2026-06-30T06:24:46.210464,13.15549583,.00021526,87.8994,256.6004,111.0727,249.0633,0,U,48773,999,24605,.40043396E-3,.164E-5,0
ONEWEB-0243,2021-045H,2026-06-30T05:20:54.753216,13.15530780,.00013998,87.8995,256.6213,106.6769,253.4516,0,U,48774,999,24607,-.54935606E-2,-.2054E-4,0
ONEWEB-0222,2021-045J,2026-06-30T06:46:26.191776,13.15549890,.00020302,87.9006,256.5784,106.4822,253.6531,0,U,48775,999,24612,.43047616E-3,.175E-5,0
ONEWEB-0244,2021-045K,2026-06-30T05:34:34.314240,13.15549615,.00019272,87.9012,256.5838,103.0345,257.1000,0,U,48776,999,24668,-.17017549E-3,-.51E-6,0
ONEWEB-0247,2021-045L,2026-06-30T05:30:00.989568,13.15548079,.00015037,87.8995,256.6150,122.3396,237.7880,0,U,48777,999,24612,-.14582804E-3,-.42E-6,0
ONEWEB-0245,2021-045M,2026-06-30T05:23:09.875904,13.15548452,.00020991,87.9005,256.5959,104.2215,255.9149,0,U,48778,999,24609,.94620111E-4,.48E-6,0
ONEWEB-0229,2021-045N,2026-06-30T05:16:18.763968,13.15549649,.00018848,87.9009,256.5947,100.4886,259.6457,0,U,48779,999,24612,.10098118E-3,.51E-6,0
ONEWEB-0228,2021-045P,2026-06-30T06:04:26.319360,13.15548096,.00019963,87.9011,256.5817,102.1041,258.0313,0,U,48780,999,24604,.35002466E-3,.145E-5,0
ONEWEB-0232,2021-045Q,2026-06-30T05:27:43.738848,13.15547257,.00020988,87.9010,256.5872,100.5364,259.6002,0,U,48781,999,24636,-.51844652E-4,-.7E-7,0
ONEWEB-0231,2021-045R,2026-06-30T04:55:46.550496,13.15549386,.00019592,87.9005,256.6041,106.6675,253.4670,0,U,48782,999,24605,.46135788E-3,.187E-5,0
ONEWEB-0234,2021-045S,2026-06-30T05:50:20.313888,13.15549184,.0002868,87.9004,256.5786,99.0387,261.1068,0,U,48783,999,24619,-.17398862E-3,-.53E-6,0
ONEWEB-0238,2021-045T,2026-06-30T05:50:44.791008,13.15548352,.00024614,87.9010,256.5739,99.6126,260.5283,0,U,48784,999,24609,-.13797721E-3,-.39E-6,0
ONEWEB-0240,2021-045U,2026-06-30T06:21:21.044160,13.15549287,.00019499,87.9008,256.5794,114.0975,246.0359,0,U,48785,999,24612,.16798229E-3,.76E-6,0
ONEWEB-0246,2021-045V,2026-06-30T06:13:21.256320,13.15549571,.00019012,87.9007,256.5847,100.2443,259.8901,0,U,48786,999,24599,.1459103E-4,.18E-6,0
ONEWEB-0210,2021-045W,2026-06-30T05:36:50.831424,13.15547437,.00012535,87.9007,256.5869,114.8824,245.2437,0,U,48787,999,24603,-.16719084E-4,.7E-7,0
ONEWEB-0214,2021-045X,2026-06-30T05:49:23.226816,13.15549824,.00016916,87.9005,256.5821,94.6023,265.5300,0,U,48788,999,24600,-.8374444E-4,-.19E-6,0
ONEWEB-0221,2021-045Y,2026-06-30T05:59:40.480512,13.15548960,.00019639,87.9006,256.5892,105.5694,254.5653,0,U,48789,999,24609,.15367744E-3,.71E-6,0
ONEWEB-0213,2021-045Z,2026-06-30T05:43:42.210336,13.15548133,.00018551,87.9006,256.5944,106.7658,253.3676,0,U,48790,999,24615,-.17581346E-3,-.53E-6,0
ONEWEB-0212,2021-045AA,2026-06-30T05:10:34.823712,13.15551071,.00020774,87.9006,256.5931,99.3897,260.7469,0,U,48791,999,24614,.21606566E-3,.94E-6,0
ONEWEB-0227,2021-045AB,2026-06-30T05:09:28.090080,13.15550002,.00020249,87.9005,256.5939,102.2491,257.8866,0,U,48792,999,24609,.40770021E-3,.166E-5,0
ONEWEB-0226,2021-045AC,2026-06-30T05:00:20.171520,13.15547358,.00017861,87.9002,256.5996,103.7344,256.3985,0,U,48793,999,24606,.42971217E-3,.175E-5,0
ONEWEB-0224,2021-045AD,2026-06-30T05:57:23.823360,13.15548197,.00028155,87.8997,256.6254,111.3471,248.7960,0,U,48794,999,24599,-.60140369E-4,-.1E-6,0
ONEWEB-0233,2021-045AE,2026-06-30T11:32:36.252960,13.15548300,.0002023,87.8996,256.5863,108.6025,251.5325,0,U,48795,999,24604,-.15495748E-3,-.46E-6,0
ONEWEB-0190,2021-045AF,2026-06-30T05:45:58.995360,13.15548053,.00017623,87.9001,256.5968,119.3978,240.7328,0,U,48796,999,24608,-.98832893E-4,-.24E-6,0
